THOR 5                  
1 32487U 08006A   17303.25296124 -.00000010  00000-0  00000-0 0  9995
2 32487   0.0090 225.1195 0002548 357.7734 266.2133  1.00271964 35703
KIZUNA (WINDS)          
1 32500U 08007A   17303.47048549 -.00000258  00000-0  00000+0 0  9995
2 32500   1.1165  89.4228 0002443 138.6362 123.3144  1.00271479 35435
AMC-14                  
1 32708U 08011A   17303.01851587  .00000106  00000-0  00000+0 0  9995
2 32708  19.3599  60.8268 0032212 356.3104   6.0657  1.00275682 36497
DIRECTV 11              
1 32729U 08013A   17303.38226747 -.00000127  00000-0  00000-0 0  9999
2 32729   0.0103 129.8308 0000279  76.8804 230.6491  1.00272087 14008
ICO G1                  
1 32763U 08016A   17303.25539418 -.00000176  00000-0  00000-0 0  9992
2 32763   3.7879 356.7204 0003082 242.0841 159.0628  1.00271790 34980
VINASAT-1               
1 32767U 08018A   17302.52773639 -.00000330  00000-0  00000+0 0  9993
2 32767   0.0044  60.0379 0001751 166.7512 133.2327  1.00273039 34993
STAR ONE C2             
1 32768U 08018B   17303.08717192 -.00000266  00000-0  00000-0 0  9997
2 32768   0.0457 127.8633 0002773  76.8375 155.3229  1.00273133 35082
TIANLIAN 1-01           
1 32779U 08019A   17303.49029865 -.00000137  00000-0  10000-3 0  9999
2 32779   2.8266  75.3707 0035222 226.8992 353.2569  1.00273761 34866
AMOS-3                  
1 32794U 08022A   17303.37688243 -.00000036  00000-0  00000-0 0  9992
2 32794   0.0171 237.3683 0002373 337.3863 315.7476  1.00271254 50781
GALAXY 18 (G-18)        
1 32951U 08024A   17302.23677328  .00000023  00000-0  00000-0 0  9990
2 32951   0.0146 156.2846 0003089  57.5041 146.2277  1.00271741 14295
CHINASAT 9 (ZX 9)       
1 33051U 08028A   17303.63639159 -.00000249  00000-0  00000-0 0  9992
2 33051   0.0031 282.6390 0003422 292.9937 144.8452  1.00271440 34419
SKYNET 5C               
1 33055U 08030A   17303.38174155 -.00000140  00000-0  00000-0 0  9991
2 33055   0.0646   1.8591 0004251 213.5745 303.0936  1.00272944 34355
TURKSAT 3A              
1 33056U 08030B   17303.59761924  .00000145  00000-0  00000-0 0  9995
2 33056   0.0721  83.9926 0003994 105.8230 106.4503  1.00270505 20753
INTELSAT 25 (IS-25)     
1 33153U 08034A   17302.98049412 -.00000225  00000-0  00000-0 0  9990
2 33153   0.0136 206.0269 0002720  35.2515 118.7313  1.00271978 34145
BADR-6                  
1 33154U 08034B   17303.25882573  .00000143  00000-0  00000-0 0  9993
2 33154   0.0586  42.4787 0001543 158.1345 317.3151  1.00270136 34153
ECHOSTAR 11             
1 33207U 08035A   17303.19798030 -.00000058  00000-0  00000-0 0  9996
2 33207   0.0442  79.4514 0002692 135.8903 144.6776  1.00272261 19652
SUPERBIRD-C2            
1 33274U 08038A   17303.47051598 -.00000252  00000-0  00000-0 0  9991
2 33274   0.0166 262.1997 0002081 331.9606 118.1802  1.00270735 74129
AMC-21                  
1 33275U 08038B   17303.49051674  .00000035  00000-0  00000-0 0  9997
2 33275   0.0653  78.3333 0002344 146.1307 226.2418  1.00271945 33895
INMARSAT 4-F3           
1 33278U 08039A   17303.50229924 -.00000139  00000-0  00000+0 0  9993
2 33278   3.0271   2.7654 0002814 224.2379 254.8617  1.00271481 33661
NIMIQ 4                 
1 33373U 08044A   17303.49910257 -.00000221  00000-0  00000-0 0  9992
2 33373   0.0178 275.9147 0002320 310.7253 270.0525  1.00269935 33372
GALAXY 19 (G-19)        
1 33376U 08045A   17303.16198034 -.00000141  00000-0  00000+0 0  9991
2 33376   0.0112 245.7618 0003185 333.3695 140.8829  1.00271984 33235
VENESAT-1               
1 33414U 08055A   17303.37563324 -.00000239  00000-0  00000+0 0  9994
2 33414   0.0449  75.5669 0003465 173.7967 206.7633  1.00272038 32948
ASTRA 1M                
1 33436U 08057A   17303.36716122  .00000119  00000-0  00000+0 0  9991
2 33436   0.0340 103.6540 0004623  75.2842  11.3371  1.00270926 32873
CIEL-2                  
1 33453U 08063A   17303.47487788  .00000057  00000-0  00000-0 0  9994
2 33453   0.0567  83.1563 0003429 144.4903 213.4647  1.00273109 32552
EUTELSAT HOT BIRD 13C   
1 33459U 08065A   17302.85732827  .00000085  00000-0  00000-0 0  9991
2 33459   0.0523  44.7509 0003606 146.3496 168.9282  1.00271884 15758
EUTELSAT 48D            
1 33460U 08065B   17303.63588068  .00000123  00000-0  00000-0 0  9999
2 33460   0.0748  57.6580 0002274 168.0539  90.4739  1.00270805 32410
FENGYUN 2E              
1 33463U 08066A   17303.60999130 -.00000198  00000-0  00000-0 0  9999
2 33463   2.4345  67.8369 0005715 220.4859  56.9007  1.00266036 32484
EXPRESS-AM44            
1 33595U 09007A   17303.37688243 -.00000090  00000-0  00000-0 0  9996
2 33595   0.0086 305.2487 0000889 348.8623 229.4794  1.00272251 31954
NSS-9                   
1 33749U 09008A   17303.55241838  .00000070  00000-0  00000-0 0  9990
2 33749   0.0207  76.7960 0002405 134.6255 209.5696  1.00270447 31915
EUTELSAT 33E            
1 33750U 09008B   17303.35743721  .00000154  00000-0  00000+0 0  9990
2 33750   0.0140   5.8682 0006047 212.4698 342.3088  1.00273633 31998
TELSTAR 11N             
1 34111U 09009A   17303.04351698 -.00000252  00000-0  00000+0 0  9997
2 34111   0.0198 255.8856 0002593 293.6676 187.1343  1.00272554 31813
EUTELSAT 10A            
1 34710U 09016A   17303.36716122  .00000067  00000-0  00000+0 0  9995
2 34710   0.0690  16.6136 0005099 207.8625 316.5877  1.00273111 31364
SES-7 (PROTOSTAR 2)     
1 34941U 09027A   17303.60049212 -.00000346  00000-0  00000-0 0  9991
2 34941   0.0492  75.9412 0002480 184.3560 103.2700  1.00271138 31030
MEASAT-3A               
1 35362U 09032A   17302.63974713 -.00000244  00000-0  00000-0 0  9997
2 35362   0.0289 204.1284 0003294  18.4207 137.4619  1.00273016 30623
GOES 14                 
1 35491U 09033A   17303.18211107 -.00000095  00000-0  00000+0 0  9996
2 35491   0.2624 274.9741 0010743 310.8437 134.1311  1.00272398 30552
SIRIUS FM-5             
1 35493U 09034A   17302.92688150 -.00000202  00000-0  00000+0 0  9996
2 35493   0.0200 291.4965 0000645 127.0362 227.4768  1.00272699 30364
TERRESTAR-1             
1 35496U 09035A   17303.16468163 -.00000061  00000-0  00000-0 0  9991
2 35496   2.7958 347.3222 0003177 242.3688 117.2794  1.00272756 30570
ASIASAT 5               
1 35696U 09042A   17303.64869213 -.00000309  00000-0  00000-0 0  9990
2 35696   0.0556 103.2008 0001190  64.0566 205.9677  1.00270203 30070
JCSAT-RA (JCSAT-12)     
1 35755U 09044A   17302.53891271 -.00000347  00000-0  00000-0 0  9996
2 35755   0.0911  73.8667 0001174 109.0614 177.1077  1.00272336 30006
OPTUS D3                
1 35756U 09044B   17303.54258156 -.00000149  00000-0  00000+0 0  9997
2 35756   0.0214  13.9753 0002858 211.9240 164.4982  1.00268927 30030
PALAPA D                
1 35812U 09046A   17303.57762090 -.00000359  00000-0  00000-0 0  9996
2 35812   0.0081 273.4648 0002331 335.6017 110.9086  1.00268686 30070
NIMIQ 5                 
1 35873U 09050A   17303.51276312 -.00000258  00000-0  00000-0 0  9997
2 35873   0.0408  74.6298 0002373 145.4066 290.9090  1.00272533 29763
AMAZONAS 2              
1 35942U 09054A   17303.45670943 -.00000283  00000-0  00000-0 0  9997
2 35942   0.0614 106.9041 0004332  82.9394 312.5786  1.00270078 29596
COMSATBW-1              
1 35943U 09054B   17303.58868819  .00000024  00000-0  00000-0 0  9995
2 35943   0.0233 105.0578 0002880 129.9652  78.9964  1.00268236 29701
NSS-12                  
1 36032U 09058A   17302.73541938  .00000069  00000-0  00000-0 0  9994
2 36032   0.0433  79.4570 0002582 138.8815 141.6798  1.00271640 29333
THOR 6                  
1 36033U 09058B   17303.25296124 -.00000011  00000-0  00000+0 0  9994
2 36033   0.0365 110.3621 0001892 113.3629 265.2889  1.00271545 29365
INTELSAT 14 (IS-14)     
1 36097U 09064A   17303.01792967 -.00000275  00000-0  00000+0 0  9993
2 36097   0.0201 258.5587 0002576 317.3606 144.1004  1.00271186 29108
EUTELSAT 36B            
1 36101U 09065A   17303.27271598  .00000154  00000-0  00000-0 0  9996
2 36101   0.0695  14.8942 0004637 208.7966 309.2058  1.00273901 29123
INTELSAT 15 (IS-15)     
1 36106U 09067A   17303.59029141 -.00000187  00000-0  00000-0 0  9990
2 36106   0.0260 284.8908 0002660 270.6583 141.2365  1.00271478  9708
DIRECTV 12              
1 36131U 09075A   17303.33944692 -.00000104  00000-0  00000+0 0  9994
2 36131   0.0147 226.0921 0000345 263.5495 288.6106  1.00269745 28786
BEIDOU G1               
1 36287U 10001A   17303.47827147 -.00000285  00000-0  00000+0 0  9997
2 36287   1.4801   8.5489 0003873 189.1968 153.3396  1.00267270 28565
RADUGA-1M 2             
1 36358U 10002A   17303.59029424 -.00000185  00000-0  00000-0 0  9992
2 36358   0.0257 261.7628 0002791   3.9023  70.9624  1.00271683 18509
SDO                     
1 36395U 10005A   17303.53484872 -.00000030  00000-0  00000+0 0  9990
2 36395  28.9138 138.0094 0001519 104.8284 247.0677  1.00273653 28423
INTELSAT 16 (IS-16)     
1 36397U 10006A   17303.19837691 -.00000193  00000-0  00000-0 0  9997
2 36397   0.0415  74.1402 0001856 152.1181 167.2884  0.99825812 28265
GOES 15                 
1 36411U 10008A   17303.26689309  .00000085  00000-0  00000+0 0  9993
2 36411   0.2396 273.8493 0004804 282.4976 163.6749  1.00282915 28089
ECHOSTAR 14             
1 36499U 10010A   17302.99563299 -.00000001  00000-0  00000-0 0  9990
2 36499   0.0110 253.5119 0002990 324.7253  59.8343  1.00272257 14976
SES-1                   
1 36516U 10016A   17303.53443890 -.00000116  00000-0  00000-0 0  9998
2 36516   0.0283  32.8944 0002137 179.4372 278.1430  1.00272256 27450
ASTRA 3B                
1 36581U 10021A   17303.36229910  .00000136  00000-0  00000+0 0  9992
2 36581   0.0640 302.8568 0002986 276.8276 333.1364  1.00270109 27046
COMSATBW-2              
1 36582U 10021B   17303.24627907  .00000088  00000-0  00000-0 0  9995
2 36582   0.0114 263.8910 0002202 329.7082 267.0829  1.00274914 27379
